[{"OBJECT_NAME":"XINGYUN-2 02","OBJECT_ID":"2020-028B","EPOCH":"2026-03-10T00:08:18.521088","MEAN_MOTION":15.11086378,"ECCENTRICITY":0.0009258,"INCLINATION":97.5114,"RA_OF_ASC_NODE":76.7595,"ARG_OF_PERICENTER":249.9829,"MEAN_ANOMALY":110.0404,"EPHEMERIS_TYPE":0,"CLASSIFICATION_TYPE":"U","NORAD_CAT_ID":45603,"ELEMENT_SET_NO":999,"REV_AT_EPOCH":31985,"BSTAR":0.00013296102,"MEAN_MOTION_DOT":2.163e-5,"MEAN_MOTION_DDOT":0},{"OBJECT_NAME":"STARLINK-5022","OBJECT_ID":"2022-119T","EPOCH":"2026-03-09T22:19:50.129184","MEAN_MOTION":15.08840409,"ECCENTRICITY":0.00015172,"INCLINATION":53.2179,"RA_OF_ASC_NODE":322.8459,"ARG_OF_PERICENTER":78.3199,"MEAN_ANOMALY":281.7964,"EPHEMERIS_TYPE":0,"CLASSIFICATION_TYPE":"U","NORAD_CAT_ID":53903,"ELEMENT_SET_NO":999,"REV_AT_EPOCH":19172,"BSTAR":-0.0001058895,"MEAN_MOTION_DOT":-1.973e-5,"MEAN_MOTION_DDOT":0}]
